[{"OBJECT_NAME":"STARLINK-31775","OBJECT_ID":"2024-112Q","EPOCH":"2026-03-09T07:12:42.188256","MEAN_MOTION":15.3018723,"ECCENTRICITY":0.00013218,"INCLINATION":53.1601,"RA_OF_ASC_NODE":80.0421,"ARG_OF_PERICENTER":74.2211,"MEAN_ANOMALY":285.8936,"EPHEMERIS_TYPE":0,"CLASSIFICATION_TYPE":"U","NORAD_CAT_ID":60052,"ELEMENT_SET_NO":999,"REV_AT_EPOCH":9853,"BSTAR":1.4867204e-5,"MEAN_MOTION_DOT":8.1e-7,"MEAN_MOTION_DDOT":0},{"OBJECT_NAME":"USA 22","OBJECT_ID":"1987-043A","EPOCH":"2026-03-09T12:49:38.770464","MEAN_MOTION":14.09930808,"ECCENTRICITY":0.06945592,"INCLINATION":63.291,"RA_OF_ASC_NODE":125.356,"ARG_OF_PERICENTER":106.1549,"MEAN_ANOMALY":261.7059,"EPHEMERIS_TYPE":0,"CLASSIFICATION_TYPE":"U","NORAD_CAT_ID":17997,"ELEMENT_SET_NO":999,"REV_AT_EPOCH":9242,"BSTAR":0.00062215279,"MEAN_MOTION_DOT":0.00012639,"MEAN_MOTION_DDOT":0}]
